{
 "cells": [
  {
   "cell_type": "markdown",
   "metadata": {},
   "source": [
    "# Weather Data Parser\n",
    "- Gets the WEATHER data into a dataframe ready for analytics\n",
    "- Does not perform any analysis or non-reversible mods\n",
    "\n",
    "TODO: "
   ]
  },
  {
   "cell_type": "code",
   "execution_count": 35,
   "metadata": {},
   "outputs": [],
   "source": [
    "# Preliminary setup\n",
    "import pandas as pd\n",
    "import zipfile\n",
    "import os\n",
    "import numpy as np\n",
    "\n",
    "zipname = 'wx'\n",
    "dataname = 'LFPO'\n",
    "#nskiprows = int(1.1e5)\n",
    "nskiprows = 0\n",
    "#readrows = int(1.e5)\n",
    "readrows = None # Comment out for smaller test load."
   ]
  },
  {
   "cell_type": "code",
   "execution_count": 2,
   "metadata": {},
   "outputs": [],
   "source": [
    "# Extract zip if necessary\n",
    "if not os.path.isfile(dataname + '.txt'):\n",
    "    zip_ref = zipfile.ZipFile('src/' + zipname +'.zip', 'r')\n",
    "    zip_ref.extractall('.')\n",
    "    zip_ref.close()"
   ]
  },
  {
   "cell_type": "code",
   "execution_count": 3,
   "metadata": {},
   "outputs": [],
   "source": [
    "# Setup for read_csv\n",
    "coltypes = { 'alti': 'float64', 'drct': 'float64', 'dwpf': 'float64', 'gust': 'float64', 'metar': 'str', 'mslp': 'float64', 'p01i': 'float64', 'relh': 'float64', 'sknt': 'float64', 'skyc1': 'object', 'skyc2': 'object', 'skyc3': 'object', 'skyc4': 'object', 'skyl1': 'float64', 'skyl2': 'float64', 'skyl3': 'float64', 'skyl4': 'float64', 'station': 'object', 'tmpf': 'float64', 'valid': 'object', 'vsby': 'float64', 'wxcodes': 'object'}\n",
    "# This dict should work to only allow M as null in the numeric columns... but it doesn't.\n",
    "#null_m_cols = {'alti': 'M', 'drct': 'M', 'dwpf': 'M', 'gust': 'M', 'mslp': 'M', 'p01i': 'M', 'relh': 'M', 'sknt': 'M', 'skyl1': ['M'], 'skyl2': 'M', 'skyl3': 'M', 'skyl4': 'M', 'tmpf': 'M', 'vsby': 'M'}"
   ]
  },
  {
   "cell_type": "code",
   "execution_count": 81,
   "metadata": {},
   "outputs": [],
   "source": [
    "df = pd.read_csv(dataname + '.txt'\n",
    "                 #,nrows=3000\n",
    "                 ,low_memory=False\n",
    "                 ,dtype=coltypes\n",
    "                 ,parse_dates=['valid']\n",
    "                 ,na_values='M'\n",
    "                )\n",
    "df.rename(columns=lambda x: x.strip(),inplace=True)\n",
    "#df.dtypes.to_dict()\n",
    "df.index = df.valid\n",
    "df.drop(['station', 'valid', 'sknt', 'p01i', 'mslp'\n",
    "    ,'vsby', 'gust', 'skyc1', 'skyc2', 'skyc3', 'skyc4'\n",
    "    ,'skyl1', 'skyl2', 'skyl3', 'skyl4', 'wxcodes', 'metar'\n",
    "        ],axis=1,inplace=True)"
   ]
  },
  {
   "cell_type": "code",
   "execution_count": null,
   "metadata": {},
   "outputs": [],
   "source": []
  },
  {
   "cell_type": "code",
   "execution_count": 79,
   "metadata": {},
   "outputs": [],
   "source": [
    "# Store it for later cleanup\n",
    "df.to_pickle(\"allwxdata.pickle\")"
   ]
  },
  {
   "cell_type": "code",
   "execution_count": 80,
   "metadata": {},
   "outputs": [
    {
     "data": {
      "text/html": [
       "<div>\n",
       "<style scoped>\n",
       "    .dataframe tbody tr th:only-of-type {\n",
       "        vertical-align: middle;\n",
       "    }\n",
       "\n",
       "    .dataframe tbody tr th {\n",
       "        vertical-align: top;\n",
       "    }\n",
       "\n",
       "    .dataframe thead th {\n",
       "        text-align: right;\n",
       "    }\n",
       "</style>\n",
       "<table border=\"1\" class=\"dataframe\">\n",
       "  <thead>\n",
       "    <tr style=\"text-align: right;\">\n",
       "      <th></th>\n",
       "      <th>tmpf</th>\n",
       "      <th>dwpf</th>\n",
       "      <th>relh</th>\n",
       "      <th>drct</th>\n",
       "      <th>alti</th>\n",
       "    </tr>\n",
       "    <tr>\n",
       "      <th>valid</th>\n",
       "      <th></th>\n",
       "      <th></th>\n",
       "      <th></th>\n",
       "      <th></th>\n",
       "      <th></th>\n",
       "    </tr>\n",
       "  </thead>\n",
       "  <tbody>\n",
       "    <tr>\n",
       "      <th>2007-01-01 06:30:00</th>\n",
       "      <td>50.0</td>\n",
       "      <td>42.8</td>\n",
       "      <td>76.18</td>\n",
       "      <td>240.0</td>\n",
       "      <td>30.12</td>\n",
       "    </tr>\n",
       "    <tr>\n",
       "      <th>2007-01-01 07:00:00</th>\n",
       "      <td>50.0</td>\n",
       "      <td>42.8</td>\n",
       "      <td>76.18</td>\n",
       "      <td>230.0</td>\n",
       "      <td>30.12</td>\n",
       "    </tr>\n",
       "    <tr>\n",
       "      <th>2007-01-01 07:30:00</th>\n",
       "      <td>50.0</td>\n",
       "      <td>42.8</td>\n",
       "      <td>76.18</td>\n",
       "      <td>230.0</td>\n",
       "      <td>30.15</td>\n",
       "    </tr>\n",
       "    <tr>\n",
       "      <th>2007-01-01 08:00:00</th>\n",
       "      <td>50.0</td>\n",
       "      <td>42.8</td>\n",
       "      <td>76.18</td>\n",
       "      <td>230.0</td>\n",
       "      <td>30.15</td>\n",
       "    </tr>\n",
       "    <tr>\n",
       "      <th>2007-01-01 08:30:00</th>\n",
       "      <td>46.4</td>\n",
       "      <td>41.0</td>\n",
       "      <td>81.34</td>\n",
       "      <td>250.0</td>\n",
       "      <td>30.15</td>\n",
       "    </tr>\n",
       "    <tr>\n",
       "      <th>2007-01-01 09:00:00</th>\n",
       "      <td>48.2</td>\n",
       "      <td>41.0</td>\n",
       "      <td>76.01</td>\n",
       "      <td>250.0</td>\n",
       "      <td>30.18</td>\n",
       "    </tr>\n",
       "    <tr>\n",
       "      <th>2007-01-01 09:30:00</th>\n",
       "      <td>48.2</td>\n",
       "      <td>39.2</td>\n",
       "      <td>70.88</td>\n",
       "      <td>260.0</td>\n",
       "      <td>30.21</td>\n",
       "    </tr>\n",
       "    <tr>\n",
       "      <th>2007-01-01 10:00:00</th>\n",
       "      <td>48.2</td>\n",
       "      <td>41.0</td>\n",
       "      <td>76.01</td>\n",
       "      <td>250.0</td>\n",
       "      <td>30.21</td>\n",
       "    </tr>\n",
       "    <tr>\n",
       "      <th>2007-01-01 10:30:00</th>\n",
       "      <td>50.0</td>\n",
       "      <td>39.2</td>\n",
       "      <td>66.27</td>\n",
       "      <td>260.0</td>\n",
       "      <td>30.24</td>\n",
       "    </tr>\n",
       "    <tr>\n",
       "      <th>2007-01-01 11:00:00</th>\n",
       "      <td>50.0</td>\n",
       "      <td>37.4</td>\n",
       "      <td>61.76</td>\n",
       "      <td>270.0</td>\n",
       "      <td>30.24</td>\n",
       "    </tr>\n",
       "    <tr>\n",
       "      <th>2007-01-01 11:30:00</th>\n",
       "      <td>50.0</td>\n",
       "      <td>37.4</td>\n",
       "      <td>61.76</td>\n",
       "      <td>270.0</td>\n",
       "      <td>30.24</td>\n",
       "    </tr>\n",
       "    <tr>\n",
       "      <th>2007-01-01 12:00:00</th>\n",
       "      <td>51.8</td>\n",
       "      <td>39.2</td>\n",
       "      <td>61.99</td>\n",
       "      <td>270.0</td>\n",
       "      <td>30.24</td>\n",
       "    </tr>\n",
       "    <tr>\n",
       "      <th>2007-01-01 12:30:00</th>\n",
       "      <td>51.8</td>\n",
       "      <td>37.4</td>\n",
       "      <td>57.77</td>\n",
       "      <td>260.0</td>\n",
       "      <td>30.21</td>\n",
       "    </tr>\n",
       "    <tr>\n",
       "      <th>2007-01-01 13:00:00</th>\n",
       "      <td>51.8</td>\n",
       "      <td>35.6</td>\n",
       "      <td>53.81</td>\n",
       "      <td>250.0</td>\n",
       "      <td>30.21</td>\n",
       "    </tr>\n",
       "    <tr>\n",
       "      <th>2007-01-01 13:30:00</th>\n",
       "      <td>51.8</td>\n",
       "      <td>35.6</td>\n",
       "      <td>53.81</td>\n",
       "      <td>240.0</td>\n",
       "      <td>30.21</td>\n",
       "    </tr>\n",
       "    <tr>\n",
       "      <th>2007-01-01 14:00:00</th>\n",
       "      <td>50.0</td>\n",
       "      <td>35.6</td>\n",
       "      <td>57.52</td>\n",
       "      <td>240.0</td>\n",
       "      <td>30.21</td>\n",
       "    </tr>\n",
       "    <tr>\n",
       "      <th>2007-01-01 14:30:00</th>\n",
       "      <td>50.0</td>\n",
       "      <td>39.2</td>\n",
       "      <td>66.27</td>\n",
       "      <td>220.0</td>\n",
       "      <td>30.21</td>\n",
       "    </tr>\n",
       "    <tr>\n",
       "      <th>2007-01-01 15:00:00</th>\n",
       "      <td>48.2</td>\n",
       "      <td>39.2</td>\n",
       "      <td>70.88</td>\n",
       "      <td>210.0</td>\n",
       "      <td>30.21</td>\n",
       "    </tr>\n",
       "    <tr>\n",
       "      <th>2007-01-01 15:30:00</th>\n",
       "      <td>48.2</td>\n",
       "      <td>39.2</td>\n",
       "      <td>70.88</td>\n",
       "      <td>200.0</td>\n",
       "      <td>30.18</td>\n",
       "    </tr>\n",
       "    <tr>\n",
       "      <th>2007-01-01 16:00:00</th>\n",
       "      <td>48.2</td>\n",
       "      <td>39.2</td>\n",
       "      <td>70.88</td>\n",
       "      <td>190.0</td>\n",
       "      <td>30.18</td>\n",
       "    </tr>\n",
       "    <tr>\n",
       "      <th>2007-01-01 16:30:00</th>\n",
       "      <td>46.4</td>\n",
       "      <td>39.2</td>\n",
       "      <td>75.84</td>\n",
       "      <td>190.0</td>\n",
       "      <td>30.15</td>\n",
       "    </tr>\n",
       "    <tr>\n",
       "      <th>2007-01-01 17:00:00</th>\n",
       "      <td>46.4</td>\n",
       "      <td>39.2</td>\n",
       "      <td>75.84</td>\n",
       "      <td>180.0</td>\n",
       "      <td>30.12</td>\n",
       "    </tr>\n",
       "    <tr>\n",
       "      <th>2007-01-01 17:30:00</th>\n",
       "      <td>46.4</td>\n",
       "      <td>41.0</td>\n",
       "      <td>81.34</td>\n",
       "      <td>180.0</td>\n",
       "      <td>30.12</td>\n",
       "    </tr>\n",
       "    <tr>\n",
       "      <th>2007-01-01 18:00:00</th>\n",
       "      <td>46.4</td>\n",
       "      <td>41.0</td>\n",
       "      <td>81.34</td>\n",
       "      <td>170.0</td>\n",
       "      <td>30.06</td>\n",
       "    </tr>\n",
       "    <tr>\n",
       "      <th>2007-01-01 18:30:00</th>\n",
       "      <td>46.4</td>\n",
       "      <td>41.0</td>\n",
       "      <td>81.34</td>\n",
       "      <td>170.0</td>\n",
       "      <td>30.06</td>\n",
       "    </tr>\n",
       "    <tr>\n",
       "      <th>2007-01-01 19:00:00</th>\n",
       "      <td>44.6</td>\n",
       "      <td>41.0</td>\n",
       "      <td>87.09</td>\n",
       "      <td>210.0</td>\n",
       "      <td>30.06</td>\n",
       "    </tr>\n",
       "    <tr>\n",
       "      <th>2007-01-01 19:30:00</th>\n",
       "      <td>44.6</td>\n",
       "      <td>41.0</td>\n",
       "      <td>87.09</td>\n",
       "      <td>210.0</td>\n",
       "      <td>30.03</td>\n",
       "    </tr>\n",
       "    <tr>\n",
       "      <th>2007-01-01 20:00:00</th>\n",
       "      <td>42.8</td>\n",
       "      <td>39.2</td>\n",
       "      <td>86.99</td>\n",
       "      <td>190.0</td>\n",
       "      <td>30.03</td>\n",
       "    </tr>\n",
       "    <tr>\n",
       "      <th>2007-01-01 20:30:00</th>\n",
       "      <td>42.8</td>\n",
       "      <td>41.0</td>\n",
       "      <td>93.30</td>\n",
       "      <td>180.0</td>\n",
       "      <td>30.00</td>\n",
       "    </tr>\n",
       "    <tr>\n",
       "      <th>2007-01-01 21:00:00</th>\n",
       "      <td>42.8</td>\n",
       "      <td>41.0</td>\n",
       "      <td>93.30</td>\n",
       "      <td>220.0</td>\n",
       "      <td>30.00</td>\n",
       "    </tr>\n",
       "    <tr>\n",
       "      <th>...</th>\n",
       "      <td>...</td>\n",
       "      <td>...</td>\n",
       "      <td>...</td>\n",
       "      <td>...</td>\n",
       "      <td>...</td>\n",
       "    </tr>\n",
       "    <tr>\n",
       "      <th>2010-12-30 08:00:00</th>\n",
       "      <td>35.6</td>\n",
       "      <td>33.8</td>\n",
       "      <td>93.08</td>\n",
       "      <td>40.0</td>\n",
       "      <td>30.18</td>\n",
       "    </tr>\n",
       "    <tr>\n",
       "      <th>2010-12-30 08:30:00</th>\n",
       "      <td>35.6</td>\n",
       "      <td>33.8</td>\n",
       "      <td>93.08</td>\n",
       "      <td>40.0</td>\n",
       "      <td>30.18</td>\n",
       "    </tr>\n",
       "    <tr>\n",
       "      <th>2010-12-30 09:00:00</th>\n",
       "      <td>35.6</td>\n",
       "      <td>35.6</td>\n",
       "      <td>100.00</td>\n",
       "      <td>40.0</td>\n",
       "      <td>30.18</td>\n",
       "    </tr>\n",
       "    <tr>\n",
       "      <th>2010-12-30 09:30:00</th>\n",
       "      <td>37.4</td>\n",
       "      <td>35.6</td>\n",
       "      <td>93.14</td>\n",
       "      <td>60.0</td>\n",
       "      <td>30.18</td>\n",
       "    </tr>\n",
       "    <tr>\n",
       "      <th>2010-12-30 10:00:00</th>\n",
       "      <td>37.4</td>\n",
       "      <td>37.4</td>\n",
       "      <td>100.00</td>\n",
       "      <td>70.0</td>\n",
       "      <td>30.18</td>\n",
       "    </tr>\n",
       "    <tr>\n",
       "      <th>2010-12-30 10:30:00</th>\n",
       "      <td>39.2</td>\n",
       "      <td>37.4</td>\n",
       "      <td>93.19</td>\n",
       "      <td>70.0</td>\n",
       "      <td>30.18</td>\n",
       "    </tr>\n",
       "    <tr>\n",
       "      <th>2010-12-30 11:00:00</th>\n",
       "      <td>41.0</td>\n",
       "      <td>37.4</td>\n",
       "      <td>86.89</td>\n",
       "      <td>60.0</td>\n",
       "      <td>30.18</td>\n",
       "    </tr>\n",
       "    <tr>\n",
       "      <th>2010-12-30 11:30:00</th>\n",
       "      <td>41.0</td>\n",
       "      <td>37.4</td>\n",
       "      <td>86.89</td>\n",
       "      <td>40.0</td>\n",
       "      <td>30.18</td>\n",
       "    </tr>\n",
       "    <tr>\n",
       "      <th>2010-12-30 12:00:00</th>\n",
       "      <td>42.8</td>\n",
       "      <td>37.4</td>\n",
       "      <td>81.07</td>\n",
       "      <td>50.0</td>\n",
       "      <td>30.18</td>\n",
       "    </tr>\n",
       "    <tr>\n",
       "      <th>2010-12-30 12:30:00</th>\n",
       "      <td>41.0</td>\n",
       "      <td>37.4</td>\n",
       "      <td>86.89</td>\n",
       "      <td>40.0</td>\n",
       "      <td>30.15</td>\n",
       "    </tr>\n",
       "    <tr>\n",
       "      <th>2010-12-30 13:00:00</th>\n",
       "      <td>41.0</td>\n",
       "      <td>37.4</td>\n",
       "      <td>86.89</td>\n",
       "      <td>30.0</td>\n",
       "      <td>30.15</td>\n",
       "    </tr>\n",
       "    <tr>\n",
       "      <th>2010-12-30 13:30:00</th>\n",
       "      <td>39.2</td>\n",
       "      <td>37.4</td>\n",
       "      <td>93.19</td>\n",
       "      <td>50.0</td>\n",
       "      <td>30.15</td>\n",
       "    </tr>\n",
       "    <tr>\n",
       "      <th>2010-12-30 14:00:00</th>\n",
       "      <td>39.2</td>\n",
       "      <td>37.4</td>\n",
       "      <td>93.19</td>\n",
       "      <td>60.0</td>\n",
       "      <td>30.15</td>\n",
       "    </tr>\n",
       "    <tr>\n",
       "      <th>2010-12-30 14:30:00</th>\n",
       "      <td>39.2</td>\n",
       "      <td>37.4</td>\n",
       "      <td>93.19</td>\n",
       "      <td>40.0</td>\n",
       "      <td>30.15</td>\n",
       "    </tr>\n",
       "    <tr>\n",
       "      <th>2010-12-30 15:00:00</th>\n",
       "      <td>39.2</td>\n",
       "      <td>37.4</td>\n",
       "      <td>93.19</td>\n",
       "      <td>40.0</td>\n",
       "      <td>30.15</td>\n",
       "    </tr>\n",
       "    <tr>\n",
       "      <th>2010-12-30 15:30:00</th>\n",
       "      <td>39.2</td>\n",
       "      <td>37.4</td>\n",
       "      <td>93.19</td>\n",
       "      <td>40.0</td>\n",
       "      <td>30.15</td>\n",
       "    </tr>\n",
       "    <tr>\n",
       "      <th>2010-12-30 16:00:00</th>\n",
       "      <td>39.2</td>\n",
       "      <td>37.4</td>\n",
       "      <td>93.19</td>\n",
       "      <td>40.0</td>\n",
       "      <td>30.18</td>\n",
       "    </tr>\n",
       "    <tr>\n",
       "      <th>2010-12-30 16:30:00</th>\n",
       "      <td>39.2</td>\n",
       "      <td>37.4</td>\n",
       "      <td>93.19</td>\n",
       "      <td>40.0</td>\n",
       "      <td>30.15</td>\n",
       "    </tr>\n",
       "    <tr>\n",
       "      <th>2010-12-30 17:00:00</th>\n",
       "      <td>37.4</td>\n",
       "      <td>37.4</td>\n",
       "      <td>100.00</td>\n",
       "      <td>30.0</td>\n",
       "      <td>30.15</td>\n",
       "    </tr>\n",
       "    <tr>\n",
       "      <th>2010-12-30 17:47:00</th>\n",
       "      <td>37.4</td>\n",
       "      <td>35.6</td>\n",
       "      <td>93.14</td>\n",
       "      <td>50.0</td>\n",
       "      <td>30.18</td>\n",
       "    </tr>\n",
       "    <tr>\n",
       "      <th>2010-12-30 18:00:00</th>\n",
       "      <td>37.4</td>\n",
       "      <td>35.6</td>\n",
       "      <td>93.14</td>\n",
       "      <td>50.0</td>\n",
       "      <td>30.18</td>\n",
       "    </tr>\n",
       "    <tr>\n",
       "      <th>2010-12-30 18:30:00</th>\n",
       "      <td>37.4</td>\n",
       "      <td>35.6</td>\n",
       "      <td>93.14</td>\n",
       "      <td>50.0</td>\n",
       "      <td>30.18</td>\n",
       "    </tr>\n",
       "    <tr>\n",
       "      <th>2010-12-30 19:00:00</th>\n",
       "      <td>37.4</td>\n",
       "      <td>35.6</td>\n",
       "      <td>93.14</td>\n",
       "      <td>60.0</td>\n",
       "      <td>30.18</td>\n",
       "    </tr>\n",
       "    <tr>\n",
       "      <th>2010-12-30 19:30:00</th>\n",
       "      <td>35.6</td>\n",
       "      <td>35.6</td>\n",
       "      <td>100.00</td>\n",
       "      <td>50.0</td>\n",
       "      <td>30.18</td>\n",
       "    </tr>\n",
       "    <tr>\n",
       "      <th>2010-12-30 20:00:00</th>\n",
       "      <td>35.6</td>\n",
       "      <td>35.6</td>\n",
       "      <td>100.00</td>\n",
       "      <td>80.0</td>\n",
       "      <td>30.18</td>\n",
       "    </tr>\n",
       "    <tr>\n",
       "      <th>2010-12-30 20:30:00</th>\n",
       "      <td>35.6</td>\n",
       "      <td>35.6</td>\n",
       "      <td>100.00</td>\n",
       "      <td>70.0</td>\n",
       "      <td>30.18</td>\n",
       "    </tr>\n",
       "    <tr>\n",
       "      <th>2010-12-30 21:00:00</th>\n",
       "      <td>35.6</td>\n",
       "      <td>35.6</td>\n",
       "      <td>100.00</td>\n",
       "      <td>50.0</td>\n",
       "      <td>30.18</td>\n",
       "    </tr>\n",
       "    <tr>\n",
       "      <th>2010-12-30 21:30:00</th>\n",
       "      <td>35.6</td>\n",
       "      <td>33.8</td>\n",
       "      <td>93.08</td>\n",
       "      <td>60.0</td>\n",
       "      <td>30.18</td>\n",
       "    </tr>\n",
       "    <tr>\n",
       "      <th>2010-12-30 22:00:00</th>\n",
       "      <td>35.6</td>\n",
       "      <td>33.8</td>\n",
       "      <td>93.08</td>\n",
       "      <td>70.0</td>\n",
       "      <td>30.21</td>\n",
       "    </tr>\n",
       "    <tr>\n",
       "      <th>2010-12-30 22:30:00</th>\n",
       "      <td>35.6</td>\n",
       "      <td>35.6</td>\n",
       "      <td>100.00</td>\n",
       "      <td>70.0</td>\n",
       "      <td>30.21</td>\n",
       "    </tr>\n",
       "  </tbody>\n",
       "</table>\n",
       "<p>69111 rows × 5 columns</p>\n",
       "</div>"
      ],
      "text/plain": [
       "                     tmpf  dwpf    relh   drct   alti\n",
       "valid                                                \n",
       "2007-01-01 06:30:00  50.0  42.8   76.18  240.0  30.12\n",
       "2007-01-01 07:00:00  50.0  42.8   76.18  230.0  30.12\n",
       "2007-01-01 07:30:00  50.0  42.8   76.18  230.0  30.15\n",
       "2007-01-01 08:00:00  50.0  42.8   76.18  230.0  30.15\n",
       "2007-01-01 08:30:00  46.4  41.0   81.34  250.0  30.15\n",
       "2007-01-01 09:00:00  48.2  41.0   76.01  250.0  30.18\n",
       "2007-01-01 09:30:00  48.2  39.2   70.88  260.0  30.21\n",
       "2007-01-01 10:00:00  48.2  41.0   76.01  250.0  30.21\n",
       "2007-01-01 10:30:00  50.0  39.2   66.27  260.0  30.24\n",
       "2007-01-01 11:00:00  50.0  37.4   61.76  270.0  30.24\n",
       "2007-01-01 11:30:00  50.0  37.4   61.76  270.0  30.24\n",
       "2007-01-01 12:00:00  51.8  39.2   61.99  270.0  30.24\n",
       "2007-01-01 12:30:00  51.8  37.4   57.77  260.0  30.21\n",
       "2007-01-01 13:00:00  51.8  35.6   53.81  250.0  30.21\n",
       "2007-01-01 13:30:00  51.8  35.6   53.81  240.0  30.21\n",
       "2007-01-01 14:00:00  50.0  35.6   57.52  240.0  30.21\n",
       "2007-01-01 14:30:00  50.0  39.2   66.27  220.0  30.21\n",
       "2007-01-01 15:00:00  48.2  39.2   70.88  210.0  30.21\n",
       "2007-01-01 15:30:00  48.2  39.2   70.88  200.0  30.18\n",
       "2007-01-01 16:00:00  48.2  39.2   70.88  190.0  30.18\n",
       "2007-01-01 16:30:00  46.4  39.2   75.84  190.0  30.15\n",
       "2007-01-01 17:00:00  46.4  39.2   75.84  180.0  30.12\n",
       "2007-01-01 17:30:00  46.4  41.0   81.34  180.0  30.12\n",
       "2007-01-01 18:00:00  46.4  41.0   81.34  170.0  30.06\n",
       "2007-01-01 18:30:00  46.4  41.0   81.34  170.0  30.06\n",
       "2007-01-01 19:00:00  44.6  41.0   87.09  210.0  30.06\n",
       "2007-01-01 19:30:00  44.6  41.0   87.09  210.0  30.03\n",
       "2007-01-01 20:00:00  42.8  39.2   86.99  190.0  30.03\n",
       "2007-01-01 20:30:00  42.8  41.0   93.30  180.0  30.00\n",
       "2007-01-01 21:00:00  42.8  41.0   93.30  220.0  30.00\n",
       "...                   ...   ...     ...    ...    ...\n",
       "2010-12-30 08:00:00  35.6  33.8   93.08   40.0  30.18\n",
       "2010-12-30 08:30:00  35.6  33.8   93.08   40.0  30.18\n",
       "2010-12-30 09:00:00  35.6  35.6  100.00   40.0  30.18\n",
       "2010-12-30 09:30:00  37.4  35.6   93.14   60.0  30.18\n",
       "2010-12-30 10:00:00  37.4  37.4  100.00   70.0  30.18\n",
       "2010-12-30 10:30:00  39.2  37.4   93.19   70.0  30.18\n",
       "2010-12-30 11:00:00  41.0  37.4   86.89   60.0  30.18\n",
       "2010-12-30 11:30:00  41.0  37.4   86.89   40.0  30.18\n",
       "2010-12-30 12:00:00  42.8  37.4   81.07   50.0  30.18\n",
       "2010-12-30 12:30:00  41.0  37.4   86.89   40.0  30.15\n",
       "2010-12-30 13:00:00  41.0  37.4   86.89   30.0  30.15\n",
       "2010-12-30 13:30:00  39.2  37.4   93.19   50.0  30.15\n",
       "2010-12-30 14:00:00  39.2  37.4   93.19   60.0  30.15\n",
       "2010-12-30 14:30:00  39.2  37.4   93.19   40.0  30.15\n",
       "2010-12-30 15:00:00  39.2  37.4   93.19   40.0  30.15\n",
       "2010-12-30 15:30:00  39.2  37.4   93.19   40.0  30.15\n",
       "2010-12-30 16:00:00  39.2  37.4   93.19   40.0  30.18\n",
       "2010-12-30 16:30:00  39.2  37.4   93.19   40.0  30.15\n",
       "2010-12-30 17:00:00  37.4  37.4  100.00   30.0  30.15\n",
       "2010-12-30 17:47:00  37.4  35.6   93.14   50.0  30.18\n",
       "2010-12-30 18:00:00  37.4  35.6   93.14   50.0  30.18\n",
       "2010-12-30 18:30:00  37.4  35.6   93.14   50.0  30.18\n",
       "2010-12-30 19:00:00  37.4  35.6   93.14   60.0  30.18\n",
       "2010-12-30 19:30:00  35.6  35.6  100.00   50.0  30.18\n",
       "2010-12-30 20:00:00  35.6  35.6  100.00   80.0  30.18\n",
       "2010-12-30 20:30:00  35.6  35.6  100.00   70.0  30.18\n",
       "2010-12-30 21:00:00  35.6  35.6  100.00   50.0  30.18\n",
       "2010-12-30 21:30:00  35.6  33.8   93.08   60.0  30.18\n",
       "2010-12-30 22:00:00  35.6  33.8   93.08   70.0  30.21\n",
       "2010-12-30 22:30:00  35.6  35.6  100.00   70.0  30.21\n",
       "\n",
       "[69111 rows x 5 columns]"
      ]
     },
     "execution_count": 80,
     "metadata": {},
     "output_type": "execute_result"
    }
   ],
   "source": [
    "df"
   ]
  },
  {
   "cell_type": "code",
   "execution_count": null,
   "metadata": {},
   "outputs": [],
   "source": []
  }
 ],
 "metadata": {
  "kernelspec": {
   "display_name": "Python 3",
   "language": "python",
   "name": "python3"
  },
  "language_info": {
   "codemirror_mode": {
    "name": "ipython",
    "version": 3
   },
   "file_extension": ".py",
   "mimetype": "text/x-python",
   "name": "python",
   "nbconvert_exporter": "python",
   "pygments_lexer": "ipython3",
   "version": "3.6.4"
  }
 },
 "nbformat": 4,
 "nbformat_minor": 2
}
