{
 "cells": [
  {
   "cell_type": "markdown",
   "metadata": {},
   "source": [
    "# Weather Data Parser\n",
    "- ASOS data downloaded from https://mesonet.agron.iastate.edu/request/download.phtml?network=FR__ASOS\n",
    "\n",
    "- Gets the WEATHER data into a dataframe ready for analytics\n",
    "- Does not perform any analysis or non-reversible mods\n",
    "\n",
    "As-downloaded data fields include:\n",
    "\n",
    "  - station: three or four character site identifier\n",
    "  - valid: timestamp of the observation\n",
    "  - tmpf: Air Temperature in Fahrenheit, typically @ 2 meters\n",
    "  - dwpf: Dew Point Temperature in Fahrenheit, typically @ 2 meters\n",
    "  - relh: Relative Humidity in %\n",
    "  - drct: Wind Direction in degrees from north\n",
    "  - sknt: Wind Speed in knots \n",
    "  - p01i: One hour precipitation for the period from the observation time to the time of the previous hourly precipitation reset. This varies slightly by site. Values are in inches. This value may or may not contain frozen precipitation melted by some device on the sensor or estimated by some other means. Unfortunately, we do not know of an authoritative database denoting which station has which sensor.\n",
    "  - alti: Pressure altimeter in inches\n",
    "  - mslp: Sea Level Pressure in millibar\n",
    "  - vsby: Visibility in miles\n",
    "  - gust: Wind Gust in knots\n",
    "  - skyc1: Sky Level 1 Coverage\n",
    "  - skyc2: Sky Level 2 Coverage\n",
    "  - skyc3: Sky Level 3 Coverage\n",
    "  - skyc4: Sky Level 4 Coverage\n",
    "  - skyl1: Sky Level 1 Altitude in feet\n",
    "  - skyl2: Sky Level 2 Altitude in feet\n",
    "  - skyl3: Sky Level 3 Altitude in feet\n",
    "  - skyl4: Sky Level 4 Altitude in feet\n",
    "  - wxcodes: Present Weather Codes (space seperated)\n",
    "  - metar: unprocessed reported observation in METAR format "
   ]
  },
  {
   "cell_type": "code",
   "execution_count": 91,
   "metadata": {},
   "outputs": [],
   "source": [
    "# Preliminary setup\n",
    "import pandas as pd\n",
    "import zipfile\n",
    "import os\n",
    "import numpy as np\n",
    "\n",
    "zipname = 'wx'\n",
    "dataname = 'LFPO'\n",
    "#nskiprows = int(1.1e5)\n",
    "nskiprows = 0\n",
    "#readrows = int(1.e5)\n",
    "readrows = None # Comment out for smaller test load."
   ]
  },
  {
   "cell_type": "code",
   "execution_count": 2,
   "metadata": {},
   "outputs": [],
   "source": [
    "# Extract zip if necessary\n",
    "if not os.path.isfile(dataname + '.txt'):\n",
    "    zip_ref = zipfile.ZipFile('src/' + zipname +'.zip', 'r')\n",
    "    zip_ref.extractall('.')\n",
    "    zip_ref.close()"
   ]
  },
  {
   "cell_type": "code",
   "execution_count": 133,
   "metadata": {},
   "outputs": [],
   "source": [
    "# Define column types to save processor-intensive guesswork\n",
    "coltypes = { 'alti': 'float64', 'drct': 'float64', 'dwpf': 'float64', 'gust': 'float64', 'metar': 'str', 'mslp': 'float64', 'p01i': 'float64', 'relh': 'float64', 'sknt': 'float64', 'skyc1': 'object', 'skyc2': 'object', 'skyc3': 'object', 'skyc4': 'object', 'skyl1': 'float64', 'skyl2': 'float64', 'skyl3': 'float64', 'skyl4': 'float64', 'station': 'object', 'tmpf': 'float64', 'valid': 'object', 'vsby': 'float64', 'wxcodes': 'object'}\n",
    "\n",
    "# Following dict for read_csv na_values=null_m_cols\n",
    "# Should allow M as null in the specified columns... but it doesn't.  Bug in Pandas?\n",
    "#null_m_cols = {'alti': 'M', 'drct': 'M', 'dwpf': 'M', 'gust': 'M', 'mslp': 'M', 'p01i': 'M', 'relh': 'M', 'sknt': 'M', 'skyl1': ['M'], 'skyl2': 'M', 'skyl3': 'M', 'skyl4': 'M', 'tmpf': 'M', 'vsby': 'M'}"
   ]
  },
  {
   "cell_type": "code",
   "execution_count": 139,
   "metadata": {},
   "outputs": [],
   "source": [
    "df = pd.read_csv(dataname + '.txt'\n",
    "                 #,nrows=3000\n",
    "                 ,low_memory=False\n",
    "                 ,dtype=coltypes\n",
    "                 ,parse_dates=['valid']\n",
    "                 ,na_values='M'\n",
    "                )\n",
    "df.rename(columns=lambda x: x.strip(),inplace=True) # Remove spaces from header names"
   ]
  },
  {
   "cell_type": "code",
   "execution_count": 140,
   "metadata": {},
   "outputs": [],
   "source": [
    "# df.valid is in UTC.  Use as index, and convert to Paris TZ: CET (UTC+1)\n",
    "df.index = df.valid\n",
    "df.tz_localize('UTC',copy=False)\n",
    "d = df.tz_convert('CET',copy=False)\n",
    "\n",
    "# Unit conversion\n",
    "df['tmpc'] = (df.tmpf - 32) * 5/9\n",
    "df['dwpc'] = (df.dwpf - 32) * 5/9\n",
    "\n",
    "# Drop unwanted fields\n",
    "df.drop(['station', 'valid', 'tmpf', 'dwpf', 'sknt', 'p01i', 'mslp'\n",
    "    ,'vsby', 'gust', 'skyc1', 'skyc2', 'skyc3', 'skyc4'\n",
    "    ,'skyl1', 'skyl2', 'skyl3', 'skyl4', 'wxcodes', 'metar'\n",
    "        ],axis=1,inplace=True)"
   ]
  },
  {
   "cell_type": "code",
   "execution_count": null,
   "metadata": {},
   "outputs": [],
   "source": []
  },
  {
   "cell_type": "code",
   "execution_count": 141,
   "metadata": {},
   "outputs": [],
   "source": [
    "# Store it for later cleanup\n",
    "df.to_pickle(\"allwxdata.pickle\")"
   ]
  },
  {
   "cell_type": "code",
   "execution_count": 142,
   "metadata": {},
   "outputs": [
    {
     "data": {
      "text/html": [
       "<div>\n",
       "<style scoped>\n",
       "    .dataframe tbody tr th:only-of-type {\n",
       "        vertical-align: middle;\n",
       "    }\n",
       "\n",
       "    .dataframe tbody tr th {\n",
       "        vertical-align: top;\n",
       "    }\n",
       "\n",
       "    .dataframe thead th {\n",
       "        text-align: right;\n",
       "    }\n",
       "</style>\n",
       "<table border=\"1\" class=\"dataframe\">\n",
       "  <thead>\n",
       "    <tr style=\"text-align: right;\">\n",
       "      <th></th>\n",
       "      <th>relh</th>\n",
       "      <th>drct</th>\n",
       "      <th>alti</th>\n",
       "      <th>tmpc</th>\n",
       "      <th>dwpc</th>\n",
       "    </tr>\n",
       "    <tr>\n",
       "      <th>valid</th>\n",
       "      <th></th>\n",
       "      <th></th>\n",
       "      <th></th>\n",
       "      <th></th>\n",
       "      <th></th>\n",
       "    </tr>\n",
       "  </thead>\n",
       "  <tbody>\n",
       "    <tr>\n",
       "      <th>2006-12-16 01:00:00+01:00</th>\n",
       "      <td>86.89</td>\n",
       "      <td>210.0</td>\n",
       "      <td>30.21</td>\n",
       "      <td>5.0</td>\n",
       "      <td>3.0</td>\n",
       "    </tr>\n",
       "    <tr>\n",
       "      <th>2006-12-16 01:30:00+01:00</th>\n",
       "      <td>86.89</td>\n",
       "      <td>210.0</td>\n",
       "      <td>30.21</td>\n",
       "      <td>5.0</td>\n",
       "      <td>3.0</td>\n",
       "    </tr>\n",
       "    <tr>\n",
       "      <th>2006-12-16 02:00:00+01:00</th>\n",
       "      <td>93.19</td>\n",
       "      <td>190.0</td>\n",
       "      <td>30.21</td>\n",
       "      <td>4.0</td>\n",
       "      <td>3.0</td>\n",
       "    </tr>\n",
       "    <tr>\n",
       "      <th>2006-12-16 02:30:00+01:00</th>\n",
       "      <td>93.19</td>\n",
       "      <td>180.0</td>\n",
       "      <td>30.21</td>\n",
       "      <td>4.0</td>\n",
       "      <td>3.0</td>\n",
       "    </tr>\n",
       "    <tr>\n",
       "      <th>2006-12-16 03:00:00+01:00</th>\n",
       "      <td>86.79</td>\n",
       "      <td>170.0</td>\n",
       "      <td>30.21</td>\n",
       "      <td>4.0</td>\n",
       "      <td>2.0</td>\n",
       "    </tr>\n",
       "    <tr>\n",
       "      <th>2006-12-16 03:30:00+01:00</th>\n",
       "      <td>86.79</td>\n",
       "      <td>190.0</td>\n",
       "      <td>30.21</td>\n",
       "      <td>4.0</td>\n",
       "      <td>2.0</td>\n",
       "    </tr>\n",
       "    <tr>\n",
       "      <th>2006-12-16 04:00:00+01:00</th>\n",
       "      <td>93.14</td>\n",
       "      <td>180.0</td>\n",
       "      <td>30.18</td>\n",
       "      <td>3.0</td>\n",
       "      <td>2.0</td>\n",
       "    </tr>\n",
       "    <tr>\n",
       "      <th>2006-12-16 04:30:00+01:00</th>\n",
       "      <td>93.19</td>\n",
       "      <td>190.0</td>\n",
       "      <td>30.18</td>\n",
       "      <td>4.0</td>\n",
       "      <td>3.0</td>\n",
       "    </tr>\n",
       "    <tr>\n",
       "      <th>2006-12-16 05:00:00+01:00</th>\n",
       "      <td>93.19</td>\n",
       "      <td>200.0</td>\n",
       "      <td>30.18</td>\n",
       "      <td>4.0</td>\n",
       "      <td>3.0</td>\n",
       "    </tr>\n",
       "    <tr>\n",
       "      <th>2006-12-16 05:30:00+01:00</th>\n",
       "      <td>93.19</td>\n",
       "      <td>190.0</td>\n",
       "      <td>30.18</td>\n",
       "      <td>4.0</td>\n",
       "      <td>3.0</td>\n",
       "    </tr>\n",
       "    <tr>\n",
       "      <th>2006-12-16 06:00:00+01:00</th>\n",
       "      <td>93.24</td>\n",
       "      <td>200.0</td>\n",
       "      <td>30.18</td>\n",
       "      <td>5.0</td>\n",
       "      <td>4.0</td>\n",
       "    </tr>\n",
       "    <tr>\n",
       "      <th>2006-12-16 06:30:00+01:00</th>\n",
       "      <td>93.24</td>\n",
       "      <td>190.0</td>\n",
       "      <td>30.18</td>\n",
       "      <td>5.0</td>\n",
       "      <td>4.0</td>\n",
       "    </tr>\n",
       "    <tr>\n",
       "      <th>2006-12-16 07:00:00+01:00</th>\n",
       "      <td>93.24</td>\n",
       "      <td>180.0</td>\n",
       "      <td>30.18</td>\n",
       "      <td>5.0</td>\n",
       "      <td>4.0</td>\n",
       "    </tr>\n",
       "    <tr>\n",
       "      <th>2006-12-16 07:30:00+01:00</th>\n",
       "      <td>93.24</td>\n",
       "      <td>180.0</td>\n",
       "      <td>30.18</td>\n",
       "      <td>5.0</td>\n",
       "      <td>4.0</td>\n",
       "    </tr>\n",
       "    <tr>\n",
       "      <th>2006-12-16 08:00:00+01:00</th>\n",
       "      <td>93.24</td>\n",
       "      <td>180.0</td>\n",
       "      <td>30.18</td>\n",
       "      <td>5.0</td>\n",
       "      <td>4.0</td>\n",
       "    </tr>\n",
       "    <tr>\n",
       "      <th>2006-12-16 08:30:00+01:00</th>\n",
       "      <td>93.30</td>\n",
       "      <td>180.0</td>\n",
       "      <td>30.18</td>\n",
       "      <td>6.0</td>\n",
       "      <td>5.0</td>\n",
       "    </tr>\n",
       "    <tr>\n",
       "      <th>2006-12-16 09:00:00+01:00</th>\n",
       "      <td>86.99</td>\n",
       "      <td>180.0</td>\n",
       "      <td>30.18</td>\n",
       "      <td>6.0</td>\n",
       "      <td>4.0</td>\n",
       "    </tr>\n",
       "    <tr>\n",
       "      <th>2006-12-16 09:30:00+01:00</th>\n",
       "      <td>93.30</td>\n",
       "      <td>180.0</td>\n",
       "      <td>30.18</td>\n",
       "      <td>6.0</td>\n",
       "      <td>5.0</td>\n",
       "    </tr>\n",
       "    <tr>\n",
       "      <th>2006-12-16 10:00:00+01:00</th>\n",
       "      <td>93.30</td>\n",
       "      <td>180.0</td>\n",
       "      <td>30.18</td>\n",
       "      <td>6.0</td>\n",
       "      <td>5.0</td>\n",
       "    </tr>\n",
       "    <tr>\n",
       "      <th>2006-12-16 10:30:00+01:00</th>\n",
       "      <td>87.09</td>\n",
       "      <td>200.0</td>\n",
       "      <td>30.18</td>\n",
       "      <td>7.0</td>\n",
       "      <td>5.0</td>\n",
       "    </tr>\n",
       "    <tr>\n",
       "      <th>2006-12-16 11:00:00+01:00</th>\n",
       "      <td>87.19</td>\n",
       "      <td>200.0</td>\n",
       "      <td>30.18</td>\n",
       "      <td>8.0</td>\n",
       "      <td>6.0</td>\n",
       "    </tr>\n",
       "    <tr>\n",
       "      <th>2006-12-16 11:30:00+01:00</th>\n",
       "      <td>87.19</td>\n",
       "      <td>210.0</td>\n",
       "      <td>30.18</td>\n",
       "      <td>8.0</td>\n",
       "      <td>6.0</td>\n",
       "    </tr>\n",
       "    <tr>\n",
       "      <th>2006-12-16 12:00:00+01:00</th>\n",
       "      <td>93.40</td>\n",
       "      <td>210.0</td>\n",
       "      <td>30.18</td>\n",
       "      <td>8.0</td>\n",
       "      <td>7.0</td>\n",
       "    </tr>\n",
       "    <tr>\n",
       "      <th>2006-12-16 12:30:00+01:00</th>\n",
       "      <td>93.40</td>\n",
       "      <td>220.0</td>\n",
       "      <td>30.18</td>\n",
       "      <td>8.0</td>\n",
       "      <td>7.0</td>\n",
       "    </tr>\n",
       "    <tr>\n",
       "      <th>2006-12-16 13:00:00+01:00</th>\n",
       "      <td>93.40</td>\n",
       "      <td>230.0</td>\n",
       "      <td>30.15</td>\n",
       "      <td>8.0</td>\n",
       "      <td>7.0</td>\n",
       "    </tr>\n",
       "    <tr>\n",
       "      <th>2006-12-16 13:30:00+01:00</th>\n",
       "      <td>93.40</td>\n",
       "      <td>220.0</td>\n",
       "      <td>30.15</td>\n",
       "      <td>8.0</td>\n",
       "      <td>7.0</td>\n",
       "    </tr>\n",
       "    <tr>\n",
       "      <th>2006-12-16 14:00:00+01:00</th>\n",
       "      <td>93.40</td>\n",
       "      <td>230.0</td>\n",
       "      <td>30.15</td>\n",
       "      <td>8.0</td>\n",
       "      <td>7.0</td>\n",
       "    </tr>\n",
       "    <tr>\n",
       "      <th>2006-12-16 14:30:00+01:00</th>\n",
       "      <td>93.40</td>\n",
       "      <td>280.0</td>\n",
       "      <td>30.18</td>\n",
       "      <td>8.0</td>\n",
       "      <td>7.0</td>\n",
       "    </tr>\n",
       "    <tr>\n",
       "      <th>2006-12-16 15:00:00+01:00</th>\n",
       "      <td>87.19</td>\n",
       "      <td>330.0</td>\n",
       "      <td>30.18</td>\n",
       "      <td>8.0</td>\n",
       "      <td>6.0</td>\n",
       "    </tr>\n",
       "    <tr>\n",
       "      <th>2006-12-16 15:30:00+01:00</th>\n",
       "      <td>87.19</td>\n",
       "      <td>320.0</td>\n",
       "      <td>30.21</td>\n",
       "      <td>8.0</td>\n",
       "      <td>6.0</td>\n",
       "    </tr>\n",
       "    <tr>\n",
       "      <th>...</th>\n",
       "      <td>...</td>\n",
       "      <td>...</td>\n",
       "      <td>...</td>\n",
       "      <td>...</td>\n",
       "      <td>...</td>\n",
       "    </tr>\n",
       "    <tr>\n",
       "      <th>2010-12-30 09:00:00+01:00</th>\n",
       "      <td>93.08</td>\n",
       "      <td>40.0</td>\n",
       "      <td>30.18</td>\n",
       "      <td>2.0</td>\n",
       "      <td>1.0</td>\n",
       "    </tr>\n",
       "    <tr>\n",
       "      <th>2010-12-30 09:30:00+01:00</th>\n",
       "      <td>93.08</td>\n",
       "      <td>40.0</td>\n",
       "      <td>30.18</td>\n",
       "      <td>2.0</td>\n",
       "      <td>1.0</td>\n",
       "    </tr>\n",
       "    <tr>\n",
       "      <th>2010-12-30 10:00:00+01:00</th>\n",
       "      <td>100.00</td>\n",
       "      <td>40.0</td>\n",
       "      <td>30.18</td>\n",
       "      <td>2.0</td>\n",
       "      <td>2.0</td>\n",
       "    </tr>\n",
       "    <tr>\n",
       "      <th>2010-12-30 10:30:00+01:00</th>\n",
       "      <td>93.14</td>\n",
       "      <td>60.0</td>\n",
       "      <td>30.18</td>\n",
       "      <td>3.0</td>\n",
       "      <td>2.0</td>\n",
       "    </tr>\n",
       "    <tr>\n",
       "      <th>2010-12-30 11:00:00+01:00</th>\n",
       "      <td>100.00</td>\n",
       "      <td>70.0</td>\n",
       "      <td>30.18</td>\n",
       "      <td>3.0</td>\n",
       "      <td>3.0</td>\n",
       "    </tr>\n",
       "    <tr>\n",
       "      <th>2010-12-30 11:30:00+01:00</th>\n",
       "      <td>93.19</td>\n",
       "      <td>70.0</td>\n",
       "      <td>30.18</td>\n",
       "      <td>4.0</td>\n",
       "      <td>3.0</td>\n",
       "    </tr>\n",
       "    <tr>\n",
       "      <th>2010-12-30 12:00:00+01:00</th>\n",
       "      <td>86.89</td>\n",
       "      <td>60.0</td>\n",
       "      <td>30.18</td>\n",
       "      <td>5.0</td>\n",
       "      <td>3.0</td>\n",
       "    </tr>\n",
       "    <tr>\n",
       "      <th>2010-12-30 12:30:00+01:00</th>\n",
       "      <td>86.89</td>\n",
       "      <td>40.0</td>\n",
       "      <td>30.18</td>\n",
       "      <td>5.0</td>\n",
       "      <td>3.0</td>\n",
       "    </tr>\n",
       "    <tr>\n",
       "      <th>2010-12-30 13:00:00+01:00</th>\n",
       "      <td>81.07</td>\n",
       "      <td>50.0</td>\n",
       "      <td>30.18</td>\n",
       "      <td>6.0</td>\n",
       "      <td>3.0</td>\n",
       "    </tr>\n",
       "    <tr>\n",
       "      <th>2010-12-30 13:30:00+01:00</th>\n",
       "      <td>86.89</td>\n",
       "      <td>40.0</td>\n",
       "      <td>30.15</td>\n",
       "      <td>5.0</td>\n",
       "      <td>3.0</td>\n",
       "    </tr>\n",
       "    <tr>\n",
       "      <th>2010-12-30 14:00:00+01:00</th>\n",
       "      <td>86.89</td>\n",
       "      <td>30.0</td>\n",
       "      <td>30.15</td>\n",
       "      <td>5.0</td>\n",
       "      <td>3.0</td>\n",
       "    </tr>\n",
       "    <tr>\n",
       "      <th>2010-12-30 14:30:00+01:00</th>\n",
       "      <td>93.19</td>\n",
       "      <td>50.0</td>\n",
       "      <td>30.15</td>\n",
       "      <td>4.0</td>\n",
       "      <td>3.0</td>\n",
       "    </tr>\n",
       "    <tr>\n",
       "      <th>2010-12-30 15:00:00+01:00</th>\n",
       "      <td>93.19</td>\n",
       "      <td>60.0</td>\n",
       "      <td>30.15</td>\n",
       "      <td>4.0</td>\n",
       "      <td>3.0</td>\n",
       "    </tr>\n",
       "    <tr>\n",
       "      <th>2010-12-30 15:30:00+01:00</th>\n",
       "      <td>93.19</td>\n",
       "      <td>40.0</td>\n",
       "      <td>30.15</td>\n",
       "      <td>4.0</td>\n",
       "      <td>3.0</td>\n",
       "    </tr>\n",
       "    <tr>\n",
       "      <th>2010-12-30 16:00:00+01:00</th>\n",
       "      <td>93.19</td>\n",
       "      <td>40.0</td>\n",
       "      <td>30.15</td>\n",
       "      <td>4.0</td>\n",
       "      <td>3.0</td>\n",
       "    </tr>\n",
       "    <tr>\n",
       "      <th>2010-12-30 16:30:00+01:00</th>\n",
       "      <td>93.19</td>\n",
       "      <td>40.0</td>\n",
       "      <td>30.15</td>\n",
       "      <td>4.0</td>\n",
       "      <td>3.0</td>\n",
       "    </tr>\n",
       "    <tr>\n",
       "      <th>2010-12-30 17:00:00+01:00</th>\n",
       "      <td>93.19</td>\n",
       "      <td>40.0</td>\n",
       "      <td>30.18</td>\n",
       "      <td>4.0</td>\n",
       "      <td>3.0</td>\n",
       "    </tr>\n",
       "    <tr>\n",
       "      <th>2010-12-30 17:30:00+01:00</th>\n",
       "      <td>93.19</td>\n",
       "      <td>40.0</td>\n",
       "      <td>30.15</td>\n",
       "      <td>4.0</td>\n",
       "      <td>3.0</td>\n",
       "    </tr>\n",
       "    <tr>\n",
       "      <th>2010-12-30 18:00:00+01:00</th>\n",
       "      <td>100.00</td>\n",
       "      <td>30.0</td>\n",
       "      <td>30.15</td>\n",
       "      <td>3.0</td>\n",
       "      <td>3.0</td>\n",
       "    </tr>\n",
       "    <tr>\n",
       "      <th>2010-12-30 18:47:00+01:00</th>\n",
       "      <td>93.14</td>\n",
       "      <td>50.0</td>\n",
       "      <td>30.18</td>\n",
       "      <td>3.0</td>\n",
       "      <td>2.0</td>\n",
       "    </tr>\n",
       "    <tr>\n",
       "      <th>2010-12-30 19:00:00+01:00</th>\n",
       "      <td>93.14</td>\n",
       "      <td>50.0</td>\n",
       "      <td>30.18</td>\n",
       "      <td>3.0</td>\n",
       "      <td>2.0</td>\n",
       "    </tr>\n",
       "    <tr>\n",
       "      <th>2010-12-30 19:30:00+01:00</th>\n",
       "      <td>93.14</td>\n",
       "      <td>50.0</td>\n",
       "      <td>30.18</td>\n",
       "      <td>3.0</td>\n",
       "      <td>2.0</td>\n",
       "    </tr>\n",
       "    <tr>\n",
       "      <th>2010-12-30 20:00:00+01:00</th>\n",
       "      <td>93.14</td>\n",
       "      <td>60.0</td>\n",
       "      <td>30.18</td>\n",
       "      <td>3.0</td>\n",
       "      <td>2.0</td>\n",
       "    </tr>\n",
       "    <tr>\n",
       "      <th>2010-12-30 20:30:00+01:00</th>\n",
       "      <td>100.00</td>\n",
       "      <td>50.0</td>\n",
       "      <td>30.18</td>\n",
       "      <td>2.0</td>\n",
       "      <td>2.0</td>\n",
       "    </tr>\n",
       "    <tr>\n",
       "      <th>2010-12-30 21:00:00+01:00</th>\n",
       "      <td>100.00</td>\n",
       "      <td>80.0</td>\n",
       "      <td>30.18</td>\n",
       "      <td>2.0</td>\n",
       "      <td>2.0</td>\n",
       "    </tr>\n",
       "    <tr>\n",
       "      <th>2010-12-30 21:30:00+01:00</th>\n",
       "      <td>100.00</td>\n",
       "      <td>70.0</td>\n",
       "      <td>30.18</td>\n",
       "      <td>2.0</td>\n",
       "      <td>2.0</td>\n",
       "    </tr>\n",
       "    <tr>\n",
       "      <th>2010-12-30 22:00:00+01:00</th>\n",
       "      <td>100.00</td>\n",
       "      <td>50.0</td>\n",
       "      <td>30.18</td>\n",
       "      <td>2.0</td>\n",
       "      <td>2.0</td>\n",
       "    </tr>\n",
       "    <tr>\n",
       "      <th>2010-12-30 22:30:00+01:00</th>\n",
       "      <td>93.08</td>\n",
       "      <td>60.0</td>\n",
       "      <td>30.18</td>\n",
       "      <td>2.0</td>\n",
       "      <td>1.0</td>\n",
       "    </tr>\n",
       "    <tr>\n",
       "      <th>2010-12-30 23:00:00+01:00</th>\n",
       "      <td>93.08</td>\n",
       "      <td>70.0</td>\n",
       "      <td>30.21</td>\n",
       "      <td>2.0</td>\n",
       "      <td>1.0</td>\n",
       "    </tr>\n",
       "    <tr>\n",
       "      <th>2010-12-30 23:30:00+01:00</th>\n",
       "      <td>100.00</td>\n",
       "      <td>70.0</td>\n",
       "      <td>30.21</td>\n",
       "      <td>2.0</td>\n",
       "      <td>2.0</td>\n",
       "    </tr>\n",
       "  </tbody>\n",
       "</table>\n",
       "<p>69869 rows × 5 columns</p>\n",
       "</div>"
      ],
      "text/plain": [
       "                             relh   drct   alti  tmpc  dwpc\n",
       "valid                                                      \n",
       "2006-12-16 01:00:00+01:00   86.89  210.0  30.21   5.0   3.0\n",
       "2006-12-16 01:30:00+01:00   86.89  210.0  30.21   5.0   3.0\n",
       "2006-12-16 02:00:00+01:00   93.19  190.0  30.21   4.0   3.0\n",
       "2006-12-16 02:30:00+01:00   93.19  180.0  30.21   4.0   3.0\n",
       "2006-12-16 03:00:00+01:00   86.79  170.0  30.21   4.0   2.0\n",
       "2006-12-16 03:30:00+01:00   86.79  190.0  30.21   4.0   2.0\n",
       "2006-12-16 04:00:00+01:00   93.14  180.0  30.18   3.0   2.0\n",
       "2006-12-16 04:30:00+01:00   93.19  190.0  30.18   4.0   3.0\n",
       "2006-12-16 05:00:00+01:00   93.19  200.0  30.18   4.0   3.0\n",
       "2006-12-16 05:30:00+01:00   93.19  190.0  30.18   4.0   3.0\n",
       "2006-12-16 06:00:00+01:00   93.24  200.0  30.18   5.0   4.0\n",
       "2006-12-16 06:30:00+01:00   93.24  190.0  30.18   5.0   4.0\n",
       "2006-12-16 07:00:00+01:00   93.24  180.0  30.18   5.0   4.0\n",
       "2006-12-16 07:30:00+01:00   93.24  180.0  30.18   5.0   4.0\n",
       "2006-12-16 08:00:00+01:00   93.24  180.0  30.18   5.0   4.0\n",
       "2006-12-16 08:30:00+01:00   93.30  180.0  30.18   6.0   5.0\n",
       "2006-12-16 09:00:00+01:00   86.99  180.0  30.18   6.0   4.0\n",
       "2006-12-16 09:30:00+01:00   93.30  180.0  30.18   6.0   5.0\n",
       "2006-12-16 10:00:00+01:00   93.30  180.0  30.18   6.0   5.0\n",
       "2006-12-16 10:30:00+01:00   87.09  200.0  30.18   7.0   5.0\n",
       "2006-12-16 11:00:00+01:00   87.19  200.0  30.18   8.0   6.0\n",
       "2006-12-16 11:30:00+01:00   87.19  210.0  30.18   8.0   6.0\n",
       "2006-12-16 12:00:00+01:00   93.40  210.0  30.18   8.0   7.0\n",
       "2006-12-16 12:30:00+01:00   93.40  220.0  30.18   8.0   7.0\n",
       "2006-12-16 13:00:00+01:00   93.40  230.0  30.15   8.0   7.0\n",
       "2006-12-16 13:30:00+01:00   93.40  220.0  30.15   8.0   7.0\n",
       "2006-12-16 14:00:00+01:00   93.40  230.0  30.15   8.0   7.0\n",
       "2006-12-16 14:30:00+01:00   93.40  280.0  30.18   8.0   7.0\n",
       "2006-12-16 15:00:00+01:00   87.19  330.0  30.18   8.0   6.0\n",
       "2006-12-16 15:30:00+01:00   87.19  320.0  30.21   8.0   6.0\n",
       "...                           ...    ...    ...   ...   ...\n",
       "2010-12-30 09:00:00+01:00   93.08   40.0  30.18   2.0   1.0\n",
       "2010-12-30 09:30:00+01:00   93.08   40.0  30.18   2.0   1.0\n",
       "2010-12-30 10:00:00+01:00  100.00   40.0  30.18   2.0   2.0\n",
       "2010-12-30 10:30:00+01:00   93.14   60.0  30.18   3.0   2.0\n",
       "2010-12-30 11:00:00+01:00  100.00   70.0  30.18   3.0   3.0\n",
       "2010-12-30 11:30:00+01:00   93.19   70.0  30.18   4.0   3.0\n",
       "2010-12-30 12:00:00+01:00   86.89   60.0  30.18   5.0   3.0\n",
       "2010-12-30 12:30:00+01:00   86.89   40.0  30.18   5.0   3.0\n",
       "2010-12-30 13:00:00+01:00   81.07   50.0  30.18   6.0   3.0\n",
       "2010-12-30 13:30:00+01:00   86.89   40.0  30.15   5.0   3.0\n",
       "2010-12-30 14:00:00+01:00   86.89   30.0  30.15   5.0   3.0\n",
       "2010-12-30 14:30:00+01:00   93.19   50.0  30.15   4.0   3.0\n",
       "2010-12-30 15:00:00+01:00   93.19   60.0  30.15   4.0   3.0\n",
       "2010-12-30 15:30:00+01:00   93.19   40.0  30.15   4.0   3.0\n",
       "2010-12-30 16:00:00+01:00   93.19   40.0  30.15   4.0   3.0\n",
       "2010-12-30 16:30:00+01:00   93.19   40.0  30.15   4.0   3.0\n",
       "2010-12-30 17:00:00+01:00   93.19   40.0  30.18   4.0   3.0\n",
       "2010-12-30 17:30:00+01:00   93.19   40.0  30.15   4.0   3.0\n",
       "2010-12-30 18:00:00+01:00  100.00   30.0  30.15   3.0   3.0\n",
       "2010-12-30 18:47:00+01:00   93.14   50.0  30.18   3.0   2.0\n",
       "2010-12-30 19:00:00+01:00   93.14   50.0  30.18   3.0   2.0\n",
       "2010-12-30 19:30:00+01:00   93.14   50.0  30.18   3.0   2.0\n",
       "2010-12-30 20:00:00+01:00   93.14   60.0  30.18   3.0   2.0\n",
       "2010-12-30 20:30:00+01:00  100.00   50.0  30.18   2.0   2.0\n",
       "2010-12-30 21:00:00+01:00  100.00   80.0  30.18   2.0   2.0\n",
       "2010-12-30 21:30:00+01:00  100.00   70.0  30.18   2.0   2.0\n",
       "2010-12-30 22:00:00+01:00  100.00   50.0  30.18   2.0   2.0\n",
       "2010-12-30 22:30:00+01:00   93.08   60.0  30.18   2.0   1.0\n",
       "2010-12-30 23:00:00+01:00   93.08   70.0  30.21   2.0   1.0\n",
       "2010-12-30 23:30:00+01:00  100.00   70.0  30.21   2.0   2.0\n",
       "\n",
       "[69869 rows x 5 columns]"
      ]
     },
     "execution_count": 142,
     "metadata": {},
     "output_type": "execute_result"
    }
   ],
   "source": [
    "df"
   ]
  },
  {
   "cell_type": "code",
   "execution_count": null,
   "metadata": {},
   "outputs": [],
   "source": []
  }
 ],
 "metadata": {
  "kernelspec": {
   "display_name": "Python 3",
   "language": "python",
   "name": "python3"
  },
  "language_info": {
   "codemirror_mode": {
    "name": "ipython",
    "version": 3
   },
   "file_extension": ".py",
   "mimetype": "text/x-python",
   "name": "python",
   "nbconvert_exporter": "python",
   "pygments_lexer": "ipython3",
   "version": "3.6.4"
  }
 },
 "nbformat": 4,
 "nbformat_minor": 2
}
